[{"OBJECT_NAME":"JILIN-1 06","OBJECT_ID":"2017-074C","EPOCH":"2026-03-09T22:46:57.173376","MEAN_MOTION":15.32444387,"ECCENTRICITY":0.00061285,"INCLINATION":97.4715,"RA_OF_ASC_NODE":171.0354,"ARG_OF_PERICENTER":223.0031,"MEAN_ANOMALY":137.0732,"EPHEMERIS_TYPE":0,"CLASSIFICATION_TYPE":"U","NORAD_CAT_ID":43024,"ELEMENT_SET_NO":999,"REV_AT_EPOCH":45863,"BSTAR":0.00028431628,"MEAN_MOTION_DOT":8.833e-5,"MEAN_MOTION_DDOT":0},{"OBJECT_NAME":"STARLINK-35124","OBJECT_ID":"2025-198V","EPOCH":"2026-03-09T19:40:33.340512","MEAN_MOTION":15.30170001,"ECCENTRICITY":0.0001321,"INCLINATION":53.1587,"RA_OF_ASC_NODE":270.1344,"ARG_OF_PERICENTER":60.2802,"MEAN_ANOMALY":299.833,"EPHEMERIS_TYPE":0,"CLASSIFICATION_TYPE":"U","NORAD_CAT_ID":65511,"ELEMENT_SET_NO":999,"REV_AT_EPOCH":2863,"BSTAR":0.00014744446,"MEAN_MOTION_DOT":4.006e-5,"MEAN_MOTION_DDOT":0}]
